0 SL-8 DEB
1 01480U 65020BE  13283.45211549 -.00000065  00000-0  53259-4 0  4630
2 01480 056.0711 002.1404 0863607 081.5499 288.2243 12.61929227225348
0 SL-8 DEB
1 01480U 65020BE  13285.51183965 -.00000006  00000-0  12931-3 0  4646
2 01480 056.0709 356.3739 0863560 084.4158 285.4495 12.61929980225605
0 SL-8 DEB
1 01480U 65020BE  13287.57155736  .00000104  00000-0  27080-3 0  4659
2 01480 056.0706 350.6072 0863542 087.2851 282.6478 12.61931145225864
0 SL-8 DEB
1 01480U 65020BE  13289.86892766  .00000082  00000-0  24235-3 0  4669
2 01480 056.0700 344.1748 0863501 090.4847 279.4947 12.61931800226158
0 SL-8 DEB
1 01480U 65020BE  13292.16629219 -.00000040  00000-0  86199-4 0  4671
2 01480 056.0700 337.7426 0863592 093.6895 276.3075 12.61931071226447
0 SL-8 DEB
1 01480U 65020BE  13294.46364927 -.00000057  00000-0  63633-4 0  4685
2 01480 056.0700 331.3107 0863420 096.8832 273.0973 12.61930744226738
